#dP2020  2  3  0  0  0.00000000      96 __u+U ITR00 FIT  IAC
## 2091  86400.00000000   900.00000000 58882 0.0000000000000
+  116   C01C02C03C04C05C06C07C08C09C10C11C12C13C14C16C18C19
+        C20C21C22C23C24C25C26C27C28C29C30C32C33C34C35C36C37
+        E01E02E03E04E05E07E08E09E11E12E13E14E15E18E19E21E24
+        E25E26E27E30E31E33E36G01G02G03G04G05G06G07G08G09G10
+        G11G12G13G14G15G16G17G18G19G20G21G22G23G24G25G26G27
+        G28G29G30G31G32J01J02J03J07R01R02R03R04R05R07R08R09
+        R11R12R13R14R15R16R17R18R19R20R21R22R23R26  0  0  0
++        13 13 13 13 13  8 13  8  8  8  8  8  8  7  8 15  7
++         8  7  7  8  8  8  8  8  8  8  8  8  8  8  8  8  8
++         5  4  5  4  5  4  5  4  4  5  4  5  4  4  5  4  4
++         4  4  4  5  5  5  4  3  3  3  3  4  3  3  3  3  3
++         3  3  4  3  3  3  3  4  3  3  3  3  3  3  4  3  3
++         3  3  3  3  3  9  8  8 15  6  5  5  5  5  5  6  5
++         6  5  6  6  5  6  6  6  6  6  5  5  5  8  0  0  0
%c M  cc GPS ccc cccc cccc cccc cccc ccccc ccccc ccccc ccccc
%c cc cc ccc ccc cccc cccc cccc cccc ccccc ccccc ccccc ccccc
%f  0.0000000  0.000000000  0.00000000000  0.000000000000000
%f  0.0000000  0.000000000  0.00000000000  0.000000000000000
%i    0    0    0    0      0      0      0      0         0
%i    0    0    0    0      0      0      0      0         0
/* INFORMATION & ANALYSIS CENTER (IAC)            RAPID DATA
/* S/V CLOCKS ARE ALIGNED TO GNSS TIME                      
/* G:C1WC2W R:C1PC2P E:C1XC5X C:C2IC6I J:C1CC2S             
/* PCV:IGS14_2086 OL/AL:FES2004  NONE     YN ORB:CoN CLK:CoN
*  2020 02 03  8  0  0.00000000
PC01 -32282.643456  27130.847668    289.146917    156.730893
PC02   4384.399200  41897.429644  -1150.112819    569.230298
PC03 -14775.965886  39462.637979   -761.434217   -336.551770
PC04 -39641.013660  14432.224963    -10.430329   -424.306790
PC05  21912.831011  35969.623579  -1223.910441   -283.589185
PC06 -16352.984869  38575.276261  -1661.120073    250.742303
PC07  -7081.942952  28158.808699  30891.079069     46.120107
PC08 -22561.227101  21329.254140 -28585.012808   -104.531830
PC09  -9003.355102  39613.034137  10776.648513    307.278700
PC10   5218.888237  33976.214193  24846.506168   -623.340039
PC11   7737.975405 -23293.176698  13296.714359   -159.512933
PC12  19445.359872 -19439.505300  -4649.379978    315.104734
PC13  -7764.460470  23971.628392 -33757.736816    244.358162
PC14  -2559.093293 -25742.381405  10424.711693    127.655965
PC16 -15345.922526  39155.038582   -870.628075   -803.854109
PC18   7335.436247  41511.059672    569.768941   -572.820268
PC19   9437.529389  26215.133240  -1650.597579    315.477743
PC20  -3989.642298  21708.336720 -17075.906505   -652.884621
PC21  15523.497884  -4049.643564  22849.530662    -39.324253
PC22  17597.900184  15626.428455  15018.251226   -786.122843
PC23 -25240.507446  -9298.842104  -7443.121151   -882.731373
PC24  11695.779324 -13552.868450 -21409.660236   -915.718896
PC25 -10458.395139 -15926.422547 -20401.535341   -503.158789
PC26  25587.308080  -4045.417830 -10338.194616    557.569404
PC27 -21516.474663  12228.135109  12864.306564    271.877961
PC28 -15382.339089  -5845.892168  22546.527659    262.816280
PC29   1070.597001  20409.101842 -18999.874964    182.578655
PC30 -14351.384034  23574.810451  -4038.051559    266.169355
PC32 -15484.932171   4190.396205 -22821.782225   -863.894589
PC33  -9487.540486 -26177.339979   1753.251637   -860.378099
PC34  14179.725250 -23641.800234   4420.481893   -440.982907
PC35  15551.218421   5456.593688 -22517.649497   -835.463275
PC36   9829.398491  16193.796555  20510.932348   -835.508014
PC37 -25963.016993   3045.007636   9808.650456   -893.579888
PE01  16892.403105  20800.932486  12565.675917   -786.986862
PE02 -16969.546121 -20797.732991 -12500.170293    110.152806
PE03  -7212.015736 -26132.068251 -11876.336395   -262.125992
PE04  16069.351694   8906.820580  23208.040125   -458.321719
PE05   5981.076278 -28238.403518   6554.041535   -408.605968
PE07 -15586.354714  13827.894590 -21025.721798   -335.777257
PE08 -16038.660690  -8563.651859 -23357.968727   6225.676460
PE09  15345.853946 -13996.822324  21084.551203   6168.296324
PE11  26324.735232 -13545.224170   -521.859646   1086.792264
PE12  23375.129114   1184.502394 -18120.657954   5969.889296
PE13 -26328.470248  13498.733724    790.720518    397.999261
PE14  -2847.495822  27925.848644 -10029.981317   -891.464956
PE15 -23454.883537   -892.992453  18047.528616    878.599565
PE18  12941.276593 -23968.227669  -2610.745002   -988.574246
PE19   5848.055046  27203.889271  10089.130682     -1.696061
PE21  -2256.026347  17380.218868  23849.600578   -580.596387
PE24  20351.292050  -3668.062016 -21180.727114   5629.740650
PE25   2355.966317 -17335.635865 -23874.549440   -502.910841
PE26 -13569.895716  19999.703859 -17078.776789   3572.801603
PE27 -20300.549210   3756.257137  21217.939893    290.264393
PE30 -26277.123543 -12266.597560   5972.877466   4173.427008
PE31  26343.132859  12016.592104  -6132.501801   -471.566816
PE33   6822.217782  14760.981758 -24718.541644   -470.594277
PE36  13743.995871 -19995.354114  16971.841304    603.126023
PG01   4242.250974  14371.589284 -22146.241987   -282.927438
PG02  18259.371017 -14433.425336  13347.988313   -397.864902
PG03  11895.114824  22419.101981  -8048.509024    -86.034024
PG04   1697.934066  22573.530475  13881.620222    -43.512381
PG05   6502.841864 -14890.654349  20840.384513     -7.028287
PG06  25637.437278  -6583.213442   2495.092991   -198.979065
PG07  21019.103817   7239.238196  15169.979212   -206.182654
PG08  -5531.629834  25507.113512  -4123.458051    -22.438343
PG09   9901.022400  14682.859180  19734.696841   -147.102516
PG10 -20231.782751  -6456.155275 -16017.972841   -232.091885
PG11  -3519.612470  19945.263389 -17803.919127   -371.878600
PG12  -7841.200899 -23010.691201 -11129.815790    155.379215
PG13  13110.148355 -22935.665162   2159.413674    -15.522497
PG14 -17082.732311  14149.513610 -14138.925355    -34.824099
PG15   2288.013374 -25820.124678  -5067.898529   -254.175949
PG16  -7846.043543  13473.603646  21222.621240   -120.413276
PG17  16212.791489  -4028.706805 -20207.765623    209.671616
PG18  -4875.656265  16322.789207 -20862.852462      0.590933
PG19  17595.854216 -11383.543909 -16613.639736   -203.794897
PG20 -22105.554003 -13558.313379  -6313.425693    527.847970
PG21 -22031.830284  -5057.916381  14540.615317    -46.461620
PG22   6025.364212  21258.050916 -14598.014902   -783.776649
PG23   4234.229747  21693.231503  14800.973101   -138.881413
PG24  -2549.299918 -15648.009151 -21486.310824     -8.480248
PG25 -17353.012102 -20303.354909    -29.366551    -14.387347
PG26 -14935.291035   6103.620898  21101.875793    140.628649
PG27 -12403.660462  22336.294332   6478.806088   -200.104010
PG28  18756.008943   6853.831688 -16849.589621    741.548998
PG29  -7627.950164 -15747.854998  19943.913757    -23.621660
PG30  26169.003185   -123.078112   5159.437839   -144.263636
PG31 -25232.506112   7565.228175   4947.615427    -20.745719
PG32 -16622.749244   5060.693380 -19983.616631    202.404954
PJ01 -18514.671087  26346.006457 -22636.344203   -325.270610
PJ02 -28483.938068  20415.101506  28246.415039     -1.102578
PJ03 -31802.877301  26921.723460  11879.185503     -0.326291
PJ07 -25390.092409  33658.455416     -9.011570     -0.064886
PR01  12010.485000   6042.198264  21678.123525     56.535961
PR02   6086.467080 -15929.523278  19029.076685    410.108837
PR03  -2803.184960 -25003.681880   4391.749877      9.376404
PR04  -9985.066607 -19753.464885 -12660.585556     37.503627
PR05 -11442.087908  -3378.565802 -22542.050380     44.320807
PR07   3104.868209  25016.014214  -3726.175536    -32.761313
PR08  10039.694570  19729.841289  12709.308765    -50.335649
PR09 -10592.960291   7715.212908  21883.962338    114.820986
PR11  20596.299954  11787.066273   9419.842135    -12.189706
PR12  24004.922814   4498.239137  -7289.182295    102.456466
PR13  13619.760230  -5896.197582 -20764.710384    -34.315657
PR14  -4595.556782 -12559.929663 -21711.306641     47.743947
PR15 -20054.063809 -12001.102465 -10215.445146    105.835999
PR16 -24099.987145  -3810.889674   7633.164237     -1.294732
PR17   8215.458267 -17308.400769  16837.437819    297.813396
PR18  -6625.390340  -8158.696607  23264.035157     23.803394
PR19 -18010.488684   4740.548768  17437.890127    -77.213024
PR20 -19573.949985  16312.108201   -409.211032   -403.121463
PR21  -7623.945002  17011.902517 -17414.711567   -102.436717
PR22   9063.716030   5895.529372 -23098.456857    -12.452021
PR23  20003.652172  -9744.753328 -12476.189924    283.965230
PR26 -20225.177585  15097.423781   3802.247681   -409.353268
EOF
